NORAD_CAT_ID,OBJECT_NAME,OBJECT_TYPE,EPOCH,MEAN_MOTION,ECCENTRICITY,INCLINATION,RA_OF_ASC_NODE,ARG_OF_PERICENTER,MEAN_ANOMALY,BSTAR,MEAN_MOTION_DOT,MEAN_MOTION_DDOT,TLE_LINE0,TLE_LINE1,TLE_LINE2,SEMIMAJOR_AXIS,PERIOD,APOGEE,PERIGEE,DECAYED
52331.0,STARLINK-3889,PAYLOAD,2024-08-02 13:01:19,15.08841135,0.000223,53.2168,311.4572,102.2173,257.9069,0.000386,5.861e-05,0.0,0 STARLINK-3889,1 52331U 22045A   24215.54258240  .00005861  00000-0  38600-3 0  9991,2 52331  53.2168 311.4572 0002230 102.2173 257.9069 15.08841135127450,6917.877,95.437,541.285,538.199,0.0
52331.0,STARLINK-3889,PAYLOAD,2024-08-03 12:52:05,15.08858176,0.0001415,53.2174,306.9999,96.2009,263.9144,-4.1756e-05,-9.53e-06,0.0,0 STARLINK-3889,1 52331U 22045A   24216.53617025 -.00000953  00000-0 -41756-4 0  9997,2 52331  53.2174 306.9999 0001415  96.2009 263.9144 15.08858176127604,6917.825,95.436,540.669,538.711,0.0
52331.0,STARLINK-3889,PAYLOAD,2024-08-04 12:42:53,15.0884281,0.0001426,53.2174,302.5453,88.0075,272.108,0.00019638,2.839e-05,0.0,0 STARLINK-3889,1 52331U 22045A   24217.52978115  .00002839  00000-0  19638-3 0  9993,2 52331  53.2174 302.5453 0001426  88.0075 272.1080 15.08842810127750,6917.872,95.437,540.723,538.75,0.0
52331.0,STARLINK-3889,PAYLOAD,2024-08-04 22:15:11,15.08853731,0.0001404,53.2173,300.7604,85.6052,274.51,0.00037212,5.641e-05,0.0,0 STARLINK-3889,1 52331U 22045A   24217.92721705  .00005641  00000-0  37212-3 0  9990,2 52331  53.2173 300.7604 0001404  85.6052 274.5100 15.08853731127811,6917.838,95.437,540.675,538.732,0.0
52331.0,STARLINK-3889,PAYLOAD,2024-08-05 12:33:39,15.08869893,0.0001323,53.2165,298.0835,82.9273,277.1869,0.00075542,0.00011765,0.0,0 STARLINK-3889,1 52331U 22045A   24218.52336833  .00011765  00000-0  75542-3 0  9993,2 52331  53.2165 298.0835 0001323  82.9273 277.1869 15.08869893127909,6917.789,95.436,540.569,538.739,0.0
52331.0,STARLINK-3889,PAYLOAD,2024-08-05 22:05:57,15.08852059,0.0001254,53.2162,296.3017,104.5399,255.5732,-7.0073e-05,-1.403e-05,0.0,0 STARLINK-3889,1 52331U 22045A   24218.92080785 -.00001403  00000-0 -70073-4 0  9994,2 52331  53.2162 296.3017 0001254 104.5399 255.5732 15.08852059127963,6917.844,95.437,540.576,538.841,0.0
52331.0,STARLINK-3889,PAYLOAD,2024-08-06 12:24:27,15.0881938,0.0001614,53.2173,293.623,101.7805,258.3368,-0.00031349,-5.271e-05,0.0,0 STARLINK-3889,1 52331U 22045A   24219.51698039 -.00005271  00000-0 -31349-3 0  9996,2 52331  53.2173 293.6230 0001614 101.7805 258.3368 15.08819380128050,6917.943,95.439,540.925,538.692,0.0
52331.0,STARLINK-3889,PAYLOAD,2024-08-06 13:59:50,15.08820085,0.0001444,53.2166,293.3258,105.5984,254.5168,-6.1982e-05,-1.274e-05,0.0,0 STARLINK-3889,1 52331U 22045A   24219.58322110 -.00001274  00000-0 -61982-4 0  9993,2 52331  53.2166 293.3258 0001444 105.5984 254.5168 15.08820085128061,6917.941,95.439,540.805,538.807,0.0
52331.0,STARLINK-3889,PAYLOAD,2024-08-07 12:15:14,15.08864727,0.0001456,53.2163,289.1623,93.287,266.8289,0.0014859,0.00023455,0.0,0 STARLINK-3889,1 52331U 22045A   24220.51058204  .00023455  00000-0  14859-2 0  9990,2 52331  53.2163 289.1623 0001456  93.2870 266.8289 15.08864727128204,6917.805,95.436,540.677,538.663,0.0
52331.0,STARLINK-3889,PAYLOAD,2024-08-08 12:06:00,15.08862764,0.0001584,53.2156,284.6999,83.3103,276.8069,0.0011575,0.00018193,0.0,0 STARLINK-3889,1 52331U 22045A   24221.50417751  .00018193  00000-0  11575-2 0  9991,2 52331  53.2156 284.6999 0001584  83.3103 276.8069 15.08862764128355,6917.811,95.436,540.772,538.58,0.0
52331.0,STARLINK-3889,PAYLOAD,2024-08-08 21:38:19,15.08849602,0.0001651,53.2165,282.9133,91.0792,269.0389,0.00060577,9.368e-05,0.0,0 STARLINK-3889,1 52331U 22045A   24221.90161818  .00009368  00000-0  60577-3 0  9996,2 52331  53.2165 282.9133 0001651  91.0792 269.0389 15.08849602128413,6917.851,95.437,540.858,538.574,0.0
52331.0,STARLINK-3889,PAYLOAD,2024-08-09 10:21:24,15.08842821,0.0001692,53.2165,280.5328,90.0198,270.0988,0.00019166,2.764e-05,0.0,0 STARLINK-3889,1 52331U 22045A   24222.43153852  .00002764  00000-0  19166-3 0  9995,2 52331  53.2165 280.5328 0001692  90.0198 270.0988 15.08842821128498,6917.872,95.437,540.907,538.566,0.0
52331.0,STARLINK-3889,PAYLOAD,2024-08-09 13:32:11,15.08849809,0.0001759,53.2169,279.9375,100.7207,259.3984,0.00026587,3.947e-05,0.0,0 STARLINK-3889,1 52331U 22045A   24222.56401660  .00003947  00000-0  26587-3 0  9991,2 52331  53.2169 279.9375 0001759 100.7207 259.3984 15.08849809128512,6917.85,95.437,540.932,538.499,0.0
52331.0,STARLINK-3889,PAYLOAD,2024-08-10 03:50:39,15.08839076,0.0001533,53.2162,277.2653,74.6822,285.4339,6.3216e-05,7.18e-06,0.0,0 STARLINK-3889,1 52331U 22045A   24223.16018179  .00000718  00000-0  63216-4 0  9991,2 52331  53.2162 277.2653 0001533  74.6822 285.4339 15.08839076128606,6917.883,95.438,540.809,538.688,0.0
52331.0,STARLINK-3889,PAYLOAD,2024-08-10 13:22:58,15.08854129,0.0001699,53.2158,275.4794,89.1607,270.958,0.0006761,0.00010493,0.0,0 STARLINK-3889,1 52331U 22045A   24223.55761860  .00010493  00000-0  67610-3 0  9998,2 52331  53.2158 275.4794 0001699  89.1607 270.9580 15.08854129128661,6917.837,95.437,540.878,538.527,0.0
52331.0,STARLINK-3889,PAYLOAD,2024-08-11 10:02:59,15.08850378,0.000163,53.2164,271.6122,87.5125,272.6054,0.00060779,9.401e-05,0.0,0 STARLINK-3889,1 52331U 22045A   24224.41874019  .00009401  00000-0  60779-3 0  9991,2 52331  53.2164 271.6122 0001630  87.5125 272.6054 15.08850378128794,6917.849,95.437,540.841,538.586,0.0
52331.0,STARLINK-3889,PAYLOAD,2024-08-12 03:32:13,15.08844714,0.0001424,53.2155,268.3445,86.3752,273.7403,0.00019431,2.806e-05,0.0,0 STARLINK-3889,1 52331U 22045A   24225.14738074  .00002806  00000-0  19431-3 0  9993,2 52331  53.2155 268.3445 0001424  86.3752 273.7403 15.08844714128909,6917.866,95.437,540.716,538.746,0.0
52331.0,STARLINK-3889,PAYLOAD,2024-08-12 09:53:45,15.08858488,0.0001875,53.2167,267.153,106.9477,253.1721,0.00046001,7.044e-05,0.0,0 STARLINK-3889,1 52331U 22045A   24225.41233281  .00007044  00000-0  46001-3 0  9995,2 52331  53.2167 267.1530 0001875 106.9477 253.1721 15.08858488128949,6917.824,95.436,540.986,538.392,0.0
52331.0,STARLINK-3889,PAYLOAD,2024-08-12 19:26:04,15.08860829,0.000179,53.2163,265.3678,102.2163,257.903,0.00069531,0.00010801,0.0,0 STARLINK-3889,1 52331U 22045A   24225.80977105  .00010801  00000-0  69531-3 0  9996,2 52331  53.2163 265.3678 0001790 102.2163 257.9030 15.08860829129000,6917.817,95.436,540.92,538.443,0.0
52331.0,STARLINK-3889,PAYLOAD,2024-08-13 09:44:33,15.08824097,0.0001566,53.2159,262.688,93.4488,266.6684,-0.00034554,-5.781e-05,0.0,0 STARLINK-3889,1 52331U 22045A   24226.40593972 -.00005781  00000-0 -34554-3 0  9999,2 52331  53.2159 262.6880 0001566  93.4488 266.6684 15.08824097129090,6917.929,95.439,540.877,538.711,0.0
52331.0,STARLINK-3889,PAYLOAD,2024-08-13 19:16:53,15.08797233,0.0001552,53.2158,260.9102,107.8446,252.2715,-0.00068709,-0.00011194,0.0,0 STARLINK-3889,1 52331U 22045A   24226.80340087 -.00011194  00000-0 -68709-3 0  9994,2 52331  53.2158 260.9102 0001552 107.8446 252.2715 15.08797233129150,6918.011,95.44,540.95,538.802,0.0
52331.0,STARLINK-3889,PAYLOAD,2024-08-14 06:24:36,15.08810627,0.000106,53.2159,258.8254,111.0146,249.0959,-0.00028403,-4.802e-05,0.0,0 STARLINK-3889,1 52331U 22045A   24227.26708458 -.00004802  00000-0 -28403-3 0  9990,2 52331  53.2159 258.8254 0001060 111.0146 249.0959 15.08810627129228,6917.97,95.439,540.568,539.102,0.0
52331.0,STARLINK-3889,PAYLOAD,2024-08-14 11:10:45,15.08814653,0.0001285,53.2146,257.9329,106.5046,253.6088,0.00010635,1.404e-05,0.0,0 STARLINK-3889,1 52331U 22045A   24227.46580747  .00001404  00000-0  10635-3 0  9992,2 52331  53.2146 257.9329 0001285 106.5046 253.6088 15.08814653129254,6917.958,95.439,540.712,538.934,0.0
52331.0,STARLINK-3889,PAYLOAD,2024-08-14 19:07:41,15.0882407,0.0001252,53.2151,256.4478,107.0389,253.0741,0.00073051,0.00011352,0.0,0 STARLINK-3889,1 52331U 22045A   24227.79701384  .00011352  00000-0  73051-3 0  9994,2 52331  53.2151 256.4478 0001252 107.0389 253.0741 15.08824070129309,6917.929,95.439,540.66,538.928,0.0
52331.0,STARLINK-3889,PAYLOAD,2024-08-15 09:26:09,15.08858853,0.0001247,53.2145,253.7707,109.1781,250.9346,0.0012841,0.00020218,0.0,0 STARLINK-3889,1 52331U 22045A   24228.39317069  .00020218  00000-0  12841-2 0  9994,2 52331  53.2145 253.7707 0001247 109.1781 250.9346 15.08858853129392,6917.823,95.436,540.55,538.825,0.0
52331.0,STARLINK-3889,PAYLOAD,2024-08-15 18:58:28,15.0886711,0.000122,53.2138,251.9877,109.8658,250.2466,0.0010521,0.00016508,0.0,0 STARLINK-3889,1 52331U 22045A   24228.79060542  .00016508  00000-0  10521-2 0  9999,2 52331  53.2138 251.9877 0001220 109.8658 250.2466 15.08867110129452,6917.798,95.436,540.506,538.819,0.0
52331.0,STARLINK-3889,PAYLOAD,2024-08-16 09:16:55,15.08879599,0.0001304,53.2142,249.312,107.5618,252.5517,0.00098534,0.00015445,0.0,0 STARLINK-3889,1 52331U 22045A   24229.38675463  .00015445  00000-0  98534-3 0  9999,2 52331  53.2142 249.3120 0001304 107.5618 252.5517 15.08879599129549,6917.759,95.435,540.526,538.722,0.0
52331.0,STARLINK-3889,PAYLOAD,2024-08-17 01:10:46,15.08863896,0.0001601,53.2159,246.3367,121.5134,238.6015,0.00045123,6.905e-05,0.0,0 STARLINK-3889,1 52331U 22045A   24230.04914935  .00006905  00000-0  45123-3 0  9991,2 52331  53.2159 246.3367 0001601 121.5134 238.6015 15.08863896129648,6917.807,95.436,540.78,538.565,0.0
52331.0,STARLINK-3889,PAYLOAD,2024-08-17 07:32:18,15.08858752,0.0001488,53.2159,245.146,121.1878,238.926,0.00015203,2.134e-05,0.0,0 STARLINK-3889,1 52331U 22045A   24230.31410735  .00002134  00000-0  15203-3 0  9996,2 52331  53.2159 245.1460 0001488 121.1878 238.9260 15.08858752129687,6917.823,95.436,540.717,538.659,0.0
52331.0,STARLINK-3889,PAYLOAD,2024-08-18 04:12:19,15.08843849,0.0001593,53.216,241.2837,90.0172,270.1002,-2.8275e-05,-7.38e-06,0.0,0 STARLINK-3889,1 52331U 22045A   24231.17523119 -.00000738  00000-0 -28275-4 0  9996,2 52331  53.2160 241.2837 0001593  90.0172 270.1002 15.08843849129810,6917.869,95.437,540.836,538.632,0.0
